$$SOE
2459580.500000000, A.D. 2022-Jan-01 00:00:00.0000, 4.635818518559957E+08, 1.686503735181865E+08, 1.056033920991091E+08,
2459587.500000000, A.D. 2022-Jan-08 00:00:00.0000, 4.621035944968720E+08, 1.777491851917533E+08, 1.034429470985735E+08,
2459594.500000000, A.D. 2022-Jan-15 00:00:00.0000, 4.604519889200982E+08, 1.867811792191092E+08, 1.012436558630233E+08,
2459601.500000000, A.D. 2022-Jan-22 00:00:00.0000, 4.586289856442094E+08, 1.957435058477051E+08, 9.900663615819404E+07,
2459608.500000000, A.D. 2022-Jan-29 00:00:00.0000, 4.566365592626104E+08, 2.046333826338994E+08, 9.673300054745652E+07,
2459615.500000000, A.D. 2022-Feb-05 00:00:00.0000, 4.544767047548883E+08, 2.134480925753203E+08, 9.442385632699524E+07,
2459622.500000000, A.D. 2022-Feb-12 00:00:00.0000, 4.521514360497075E+08, 2.221849811758065E+08, 9.208030519896126E+07,
2459629.500000000, A.D. 2022-Feb-19 00:00:00.0000, 4.496627855109459E+08, 2.308414548137103E+08, 8.970344299588589E+07,
2459636.500000000, A.D. 2022-Feb-26 00:00:00.0000, 4.470128030326130E+08, 2.394149796929513E+08, 8.729435951611540E+07,
2459643.500000000, A.D. 2022-Mar-05 00:00:00.0000, 4.442035548993098E+08, 2.479030807621428E+08, 8.485413840396042E+07,
2459650.500000000, A.D. 2022-Mar-12 00:00:00.0000, 4.412371226316535E+08, 2.563033405380381E+08, 8.238385704754269E+07,
2459657.500000000, A.D. 2022-Mar-19 00:00:00.0000, 4.381156018853319E+08, 2.646133978631630E+08, 7.988458648881319E+07,
2459664.500000000, A.D. 2022-Mar-26 00:00:00.0000, 4.348411014238368E+08, 2.728309465934448E+08, 7.735739134196404E+07,
2459671.500000000, A.D. 2022-Apr-02 00:00:00.0000, 4.314157422304618E+08, 2.809537341617113E+08, 7.480332970830674E+07,
2459678.500000000, A.D. 2022-Apr-09 00:00:00.0000, 4.278416570296863E+08, 2.889795600234600E+08, 7.222345306202050E+07,
2459685.500000000, A.D. 2022-Apr-16 00:00:00.0000, 4.241209905731702E+08, 2.969062746399122E+08, 6.961880612634777E+07,
2459692.500000000, A.D. 2022-Apr-23 00:00:00.0000, 4.202558994184771E+08, 3.047317800830336E+08, 6.699042694393736E+07,
2459699.500000000, A.D. 2022-Apr-30 00:00:00.0000, 4.162485493273306E+08, 3.124540300190456E+08, 6.433934712862028E+07,
2459706.500000000, A.D. 2022-May-07 00:00:00.0000, 4.121011133454624E+08, 3.200710270989337E+08, 6.166659185611607E+07,
2459713.500000000, A.D. 2022-May-14 00:00:00.0000, 4.078157719522591E+08, 3.275808207943141E+08, 5.897317971365559E+07,
2459720.500000000, A.D. 2022-May-21 00:00:00.0000, 4.033947132465563E+08, 3.349815064375562E+08, 5.626012265590768E+07,
2459727.500000000, A.D. 2022-May-28 00:00:00.0000, 3.988401326876301E+08, 3.422712245082115E+08, 5.352842603216366E+07,
2459734.500000000, A.D. 2022-Jun-04 00:00:00.0000, 3.941542326668385E+08, 3.494481598537889E+08, 5.077908863329406E+07,
2459741.500000000, A.D. 2022-Jun-11 00:00:00.0000, 3.893392220530957E+08, 3.565105408478345E+08, 4.801310274490343E+07,
2459748.500000000, A.D. 2022-Jun-18 00:00:00.0000, 3.843973157494916E+08, 3.634566384993225E+08, 4.523145420376356E+07,
2459755.500000000, A.D. 2022-Jun-25 00:00:00.0000, 3.793307342892289E+08, 3.702847654808201E+08, 4.243512245168386E+07,
2459762.500000000, A.D. 2022-Jul-02 00:00:00.0000, 3.741417036037936E+08, 3.769932750101888E+08, 3.962508056873244E+07,
2459769.500000000, A.D. 2022-Jul-09 00:00:00.0000, 3.688324553526835E+08, 3.835805597629468E+08, 3.680229526402846E+07,
2459776.500000000, A.D. 2022-Jul-16 00:00:00.0000, 3.634052277582523E+08, 3.900450518972720E+08, 3.396772691706729E+07,
2459783.500000000, A.D. 2022-Jul-23 00:00:00.0000, 3.578622647443428E+08, 3.963852242679154E+08, 3.112232987699291E+07,
2459790.500000000, A.D. 2022-Jul-30 00:00:00.0000, 3.522058134596935E+08, 4.025995894757774E+08, 2.826705273798072E+07,
2459797.500000000, A.D. 2022-Aug-06 00:00:00.0000, 3.464381237841283E+08, 4.086866974029021E+08, 2.540283831374583E+07,
2459804.500000000, A.D. 2022-Aug-13 00:00:00.0000, 3.405614489934958E+08, 4.146451339876140E+08, 2.253062361172107E+07,
2459811.500000000, A.D. 2022-Aug-20 00:00:00.0000, 3.345780460127934E+08, 4.204735207367828E+08, 1.965133990973839E+07,
2459818.500000000, A.D. 2022-Aug-27 00:00:00.0000, 3.284901753250151E+08, 4.261705142492359E+08, 1.676591286960843E+07,
2459825.500000000, A.D. 2022-Sep-03 00:00:00.0000, 3.223001007832397E+08, 4.317348056399564E+08, 1.387526265570474E+07,
2459832.500000000, A.D. 2022-Sep-10 00:00:00.0000, 3.160100894154167E+08, 4.371651198888091E+08, 1.098030405200332E+07,
2459839.500000000, A.D. 2022-Sep-17 00:00:00.0000, 3.096224112503580E+08, 4.424602151117741E+08, 8.081946574421674E+06,
2459846.500000000, A.D. 2022-Sep-24 00:00:00.0000, 3.031393392243109E+08, 4.476188817035987E+08, 5.181094568397462E+06,
2459853.500000000, A.D. 2022-Oct-01 00:00:00.0000, 2.965631494070986E+08, 4.526399413296009E+08, 2.278647267471075E+06,
2459860.500000000, A.D. 2022-Oct-08 00:00:00.0000, 2.898961219545056E+08, 4.575222462888570E+08, -6.245011823137701E+05,
2459867.500000000, A.D. 2022-Oct-15 00:00:00.0000, 2.831405418545594E+08, 4.622646804473470E+08, -3.527461549313009E+06,
2459874.500000000, A.D. 2022-Oct-22 00:00:00.0000, 2.762986972843979E+08, 4.668661600560148E+08, -6.429349132456839E+06,
2459881.500000000, A.D. 2022-Oct-29 00:00:00.0000, 2.693728780741367E+08, 4.713256318611321E+08, -9.329283608088374E+06,
2459888.500000000, A.D. 2022-Nov-05 00:00:00.0000, 2.623653763774807E+08, 4.756420712489657E+08, -1.222638907659459E+07,
2459895.500000000, A.D. 2022-Nov-12 00:00:00.0000, 2.552784875839466E+08, 4.798144816910519E+08, -1.511979402559048E+07,
2459902.500000000, A.D. 2022-Nov-19 00:00:00.0000, 2.481145107522679E+08, 4.838418945351802E+08, -1.800863122199008E+07,
2459909.500000000, A.D. 2022-Nov-26 00:00:00.0000, 2.408757488262540E+08, 4.877233687443982E+08, -2.089203758975020E+07,
2459916.500000000, A.D. 2022-Dec-03 00:00:00.0000, 2.335645087982525E+08, 4.914579905722485E+08, -2.376915408965629E+07,
2459923.500000000, A.D. 2022-Dec-10 00:00:00.0000, 2.261831018648295E+08, 4.950448731927778E+08, -2.663912560393763E+07,
2459930.500000000, A.D. 2022-Dec-17 00:00:00.0000, 2.187338435984737E+08, 4.984831562603608E+08, -2.950110083011261E+07,
2459937.500000000, A.D. 2022-Dec-24 00:00:00.0000, 2.112190542438887E+08, 5.017720053337990E+08, -3.235423219955453E+07,
2459944.500000000, A.D. 2022-Dec-31 00:00:00.0000, 2.036410594959193E+08, 5.049106112728330E+08, -3.519767584490678E+07,
2459951.500000000, A.D. 2023-Jan-07 00:00:00.0000, 1.960021918817790E+08, 5.078981905701861E+08, -3.803059154917213E+07,
2459958.500000000, A.D. 2023-Jan-14 00:00:00.0000, 1.883047907806642E+08, 5.107339871155748E+08, -4.085214245561001E+07,
2459965.500000000, A.D. 2023-Jan-21 00:00:00.0000, 1.805512004348315E+08, 5.134172722182167E+08, -4.366149473843440E+07,
2459972.500000000, A.D. 2023-Jan-28 00:00:00.0000, 1.727437696192864E+08, 5.159473426936613E+08, -4.645781758683491E+07,
2459979.500000000, A.D. 2023-Feb-04 00:00:00.0000, 1.648848527621121E+08, 5.183235200436254E+08, -4.924028323612571E+07,
2459986.500000000, A.D. 2023-Feb-11 00:00:00.0000, 1.569768107201512E+08, 5.205451505348277E+08, -5.200806689728296E+07,
2459993.500000000, A.D. 2023-Feb-18 00:00:00.0000, 1.490220111463116E+08, 5.226116053535787E+08, -5.476034664636624E+07,
2460000.500000000, A.D. 2023-Feb-25 00:00:00.0000, 1.410228287110597E+08, 5.245222806746118E+08, -5.749630331121084E+07,
2460007.500000000, A.D. 2023-Mar-04 00:00:00.0000, 1.329816452802971E+08, 5.262765976631556E+08, -6.021512036327869E+07,
2460014.500000000, A.D. 2023-Mar-11 00:00:00.0000, 1.249008500782806E+08, 5.278740024106195E+08, -6.291598381720126E+07,
2460021.500000000, A.D. 2023-Mar-18 00:00:00.0000, 1.167828398824674E+08, 5.293139657539805E+08, -6.559808214618170E+07,
2460028.500000000, A.D. 2023-Mar-25 00:00:00.0000, 1.086300194529800E+08, 5.305959829312338E+08, -6.826060623544168E+07,
2460035.500000000, A.D. 2023-Apr-01 00:00:00.0000, 1.004448026202610E+08, 5.317195734665078E+08, -7.090274938023394E+07,
2460042.500000000, A.D. 2023-Apr-08 00:00:00.0000, 9.222961341493203E+07, 5.326842825107275E+08, -7.352370717185003E+07,
2460049.500000000, A.D. 2023-Apr-15 00:00:00.0000, 8.398688490260199E+07, 5.334896825318657E+08, -7.612267714757398E+07,
2460056.500000000, A.D. 2023-Apr-22 00:00:00.0000, 7.571905753163479E+07, 5.341353723031032E+08, -7.869885861976507E+07,
2460063.500000000, A.D. 2023-Apr-29 00:00:00.0000, 6.742857972846356E+07, 5.346209754439536E+08, -8.125145275139040E+07,
2460070.500000000, A.D. 2023-May-06 00:00:00.0000, 5.911790898103885E+07, 5.349461402966385E+08, -8.377966257163824E+07,
2460077.500000000, A.D. 2023-May-13 00:00:00.0000, 5.078951243381450E+07, 5.351105402439105E+08, -8.628269291529375E+07,
2460084.500000000, A.D. 2023-May-20 00:00:00.0000, 4.244586722802888E+07, 5.351138739770741E+08, -8.875975034773549E+07,
2460091.500000000, A.D. 2023-May-27 00:00:00.0000, 3.408946078027601E+07, 5.349558656848528E+08, -9.121004309605093E+07,
2460098.500000000, A.D. 2023-Jun-03 00:00:00.0000, 2.572279105643578E+07, 5.346362651892619E+08, -9.363278098983367E+07,
2460105.500000000, A.D. 2023-Jun-10 00:00:00.0000, 1.734836686419866E+07, 5.341548480149395E+08, -9.602717541539195E+07,
2460112.500000000, A.D. 2023-Jun-17 00:00:00.0000, 8.968708252630515E+06, 5.335114153320950E+08, -9.839243929686746E+07,
2460119.500000000, A.D. 2023-Jun-24 00:00:00.0000, 5.863473380844948E+05, 5.327057938290780E+08, -1.007277871295061E+08,
2460126.500000000, A.D. 2023-Jul-01 00:00:00.0000, -7.796170191073904E+06, 5.317378363434411E+08, -1.030324350211833E+08,
2460133.500000000, A.D. 2023-Jul-08 00:00:00.0000, -1.617628456502068E+07, 5.306074240743712E+08, -1.053056005220865E+08,
2460140.500000000, A.D. 2023-Jul-15 00:00:00.0000, -2.455142369507946E+07, 5.293144675461105E+08, -1.075465023567173E+08,
2460147.500000000, A.D. 2023-Jul-22 00:00:00.0000, -3.291900368851337E+07, 5.278589052876540E+08, -1.097543604656356E+08,
$$EOE